0 FENGYUN 1C DEB
1 29792U 99025CJ  13280.64503279  .00000766  00000-0  52760-3 0  1695
2 29792 099.1655 312.0281 0055033 240.8415 240.5486 14.01793500343989
0 FENGYUN 1C DEB
1 29792U 99025CJ  13283.05840723  .00000943  00000-0  64182-3 0  1701
2 29792 099.1651 314.4533 0055267 234.2236 179.5200 14.01800152344324
0 FENGYUN 1C DEB
1 29792U 99025CJ  13286.64068840  .00001111  00000-0  75095-3 0  1715
2 29792 099.1638 318.0530 0055644 224.4046 257.4077 14.01806042344822
0 FENGYUN 1C DEB
1 29792U 99025CJ  13289.04900128  .00001317  00000-0  88459-3 0  1723
2 29792 099.1630 320.4728 0055874 217.8714 170.8822 14.01814212345165
0 FENGYUN 1C DEB
1 29792U 99025CJ  13291.63638718  .00001374  00000-0  92086-3 0  1739
2 29792 099.1627 323.0719 0056098 210.8547 268.1120 14.01820141345526
0 FENGYUN 1C DEB
1 29792U 99025CJ  13293.76434185  .00001565  00000-0  10446-2 0  1749
2 29792 099.1628 325.2095 0056285 205.1232 206.8341 14.01825559345829
